{"type": "FeatureCollection", "features": [ {"type": "Feature", "properties": {"norad_id": 37966, "name": "COSMOS 2251 DEB", "group": "cosmos-2251-debris", "lat": -11.909530544660234, "lon": 59.92907658301156, "alt_km": 532.7596846082888, "timestamp": "2025-12-09T21:34:11.807488+00:00", "meta": {"OBJECT_NAME": "COSMOS 2251 DEB", "OBJECT_ID": "1993-036BPR", "EPOCH": "2025-12-09T09:36:29.677536", "MEAN_MOTION": 15.12084932, "ECCENTRICITY": 0.0008975, "INCLINATION": 73.977, "RA_OF_ASC_NODE": 237.4896, "ARG_OF_PERICENTER": 112.4769, "MEAN_ANOMALY": 247.7375, "EPHEMERIS_TYPE": 0, "CLASSIFICATION_TYPE": "U", "NORAD_CAT_ID": 37966, "ELEMENT_SET_NO": 999, "REV_AT_EPOCH": 85292, "BSTAR": 0.003976161, "MEAN_MOTION_DOT": 0.00069139, "MEAN_MOTION_DDOT": 0}, "tle": {"line1": "1 37966U 93036BPR 25343.40034349  .00069139  00000+0  39762-2 0  9992", "line2": "2 37966  73.9770 237.4896 0008975 112.4769 247.7375 15.12084932852920"}}, "geometry": {"type": "Point", "coordinates": [59.92907658301156, -11.909530544660234]}}, {"type": "Feature", "properties": {"norad_id": 37967, "name": "COSMOS 2251 DEB", "group": "cosmos-2251-debris", "lat": -50.4119902425145, "lon": -17.071288582568812, "alt_km": 691.7252733039941, "timestamp": "2025-12-09T21:34:11.807500+00:00", "meta": {"OBJECT_NAME": "COSMOS 2251 DEB", "OBJECT_ID": "1993-036BPS", "EPOCH": "2025-12-09T10:28:34.021632", "MEAN_MOTION": 14.40459998, "ECCENTRICITY": 0.01508198, "INCLINATION": 74.015, "RA_OF_ASC_NODE": 143.5023, "ARG_OF_PERICENTER": 282.994, "MEAN_ANOMALY": 75.4412, "EPHEMERIS_TYPE": 0, "CLASSIFICATION_TYPE": "U", "NORAD_CAT_ID": 37967, "ELEMENT_SET_NO": 999, "REV_AT_EPOCH": 64688, "BSTAR": 0.0021542461, "MEAN_MOTION_DOT": 7.814e-05, "MEAN_MOTION_DDOT": 0}, "tle": {"line1": "1 37967U 93036BPS 25343.43650488  .00007814  00000+0  21542-2 0  9993", "line2": "2 37967  74.0150 143.5023 0150819 282.9940  75.4412 14.40459998646885"}}, "geometry": {"type": "Point", "coordinates": [-17.071288582568812, -50.4119902425145]}}, {"type": "Feature", "properties": {"norad_id": 37968, "name": "COSMOS 2251 DEB", "group": "cosmos-2251-debris", "lat": 44.561402799490864, "lon": 80.53869562406415, "alt_km": 570.1973935456153, "timestamp": "2025-12-09T21:34:11.807510+00:00", "meta": {"OBJECT_NAME": "COSMOS 2251 DEB", "OBJECT_ID": "1993-036BPT", "EPOCH": "2025-12-08T12:58:54.814944", "MEAN_MOTION": 15.00440305, "ECCENTRICITY": 0.0080589, "INCLINATION": 74.0015, "RA_OF_ASC_NODE": 279.7179, "ARG_OF_PERICENTER": 36.5177, "MEAN_ANOMALY": 324.1466, "EPHEMERIS_TYPE": 0, "CLASSIFICATION_TYPE": "U", "NORAD_CAT_ID": 37968, "ELEMENT_SET_NO": 999, "REV_AT_EPOCH": 60156, "BSTAR": 0.0013442, "MEAN_MOTION_DOT": 0.00018125, "MEAN_MOTION_DDOT": 0}, "tle": {"line1": "1 37968U 93036BPT 25342.54091221  .00018125  00000+0  13442-2 0  9996", "line2": "2 37968  74.0015 279.7179 0080589  36.5177 324.1466 15.00440305601569"}}, "geometry": {"type": "Point", "coordinates": [80.53869562406415, 44.561402799490864]}}, {"type": "Feature", "properties": {"norad_id": 37971, "name": "COSMOS 2251 DEB", "group": "cosmos-2251-debris", "lat": -39.32771546274618, "lon": -119.31897959067642, "alt_km": 696.7915377674508, "timestamp": "2025-12-09T21:34:11.807520+00:00", "meta": {"OBJECT_NAME": "COSMOS 2251 DEB", "OBJECT_ID": "1993-036BPW", "EPOCH": "2025-12-09T10:36:31.990752", "MEAN_MOTION": 14.48556148, "ECCENTRICITY": 0.00677277, "INCLINATION": 73.9935, "RA_OF_ASC_NODE": 47.9361, "ARG_OF_PERICENTER": 187.3712, "MEAN_ANOMALY": 172.6459, "EPHEMERIS_TYPE": 0, "CLASSIFICATION_TYPE": "U", "NORAD_CAT_ID": 37971, "ELEMENT_SET_NO": 999, "REV_AT_EPOCH": 60630, "BSTAR": 0.0030807309, "MEAN_MOTION_DOT": 0.00011908, "MEAN_MOTION_DDOT": 0}, "tle": {"line1": "1 37971U 93036BPW 25343.44203693  .00011908  00000+0  30807-2 0  9994", "line2": "2 37971  73.9935  47.9361 0067727 187.3712 172.6459 14.48556148606308"}}, "geometry": {"type": "Point", "coordinates": [-119.31897959067642, -39.32771546274618]}}, {"type": "Feature", "properties": {"norad_id": 37975, "name": "COSMOS 2251 DEB", "group": "cosmos-2251-debris", "lat": -8.09157313876056, "lon": 151.9795414671154, "alt_km": 690.5709757565974, "timestamp": "2025-12-09T21:34:11.807530+00:00", "meta": {"OBJECT_NAME": "COSMOS 2251 DEB", "OBJECT_ID": "1993-036BQA", "EPOCH": "2025-12-09T06:04:12.444384", "MEAN_MOTION": 14.75750431, "ECCENTRICITY": 0.0096458, "INCLINATION": 74.0034, "RA_OF_ASC_NODE": 330.9079, "ARG_OF_PERICENTER": 321.0366, "MEAN_ANOMALY": 38.3883, "EPHEMERIS_TYPE": 0, "CLASSIFICATION_TYPE": "U", "NORAD_CAT_ID": 37975, "ELEMENT_SET_NO": 999, "REV_AT_EPOCH": 69694, "BSTAR": 0.0053103, "MEAN_MOTION_DOT": 0.00039407, "MEAN_MOTION_DDOT": 0}, "tle": {"line1": "1 37975U 93036BQA 25343.25292181  .00039407  00000+0  53103-2 0  9995", "line2": "2 37975  74.0034 330.9079 0096458 321.0366  38.3883 14.75750431696949"}}, "geometry": {"type": "Point", "coordinates": [151.9795414671154, -8.09157313876056]}}, {"type": "Feature", "properties": {"norad_id": 37978, "name": "COSMOS 2251 DEB", "group": "cosmos-2251-debris", "lat": -56.36761595710193, "lon": 70.018991454731, "alt_km": 333.3987508345708, "timestamp": "2025-12-09T21:34:11.807544+00:00", "meta": {"OBJECT_NAME": "COSMOS 2251 DEB", "OBJECT_ID": "1993-036BQD", "EPOCH": "2025-11-19T05:08:53.100672", "MEAN_MOTION": 15.61137081, "ECCENTRICITY": 0.00148985, "INCLINATION": 74.0238, "RA_OF_ASC_NODE": 142.2198, "ARG_OF_PERICENTER": 140.9849, "MEAN_ANOMALY": 219.2448, "EPHEMERIS_TYPE": 0, "CLASSIFICATION_TYPE": "U", "NORAD_CAT_ID": 37978, "ELEMENT_SET_NO": 999, "REV_AT_EPOCH": 8032, "BSTAR": 0.0043958825, "MEAN_MOTION_DOT": 0.0039117, "MEAN_MOTION_DDOT": 0}, "tle": {"line1": "1 37978U 93036BQD 25323.21450348  .00391170  00000+0  43959-2 0  9999", "line2": "2 37978  74.0238 142.2198 0014898 140.9849 219.2448 15.61137081 80328"}}, "geometry": {"type": "Point", "coordinates": [70.018991454731, -56.36761595710193]}}, {"type": "Feature", "properties": {"norad_id": 37985, "name": "COSMOS 2251 DEB", "group": "cosmos-2251-debris", "lat": -48.045559753219365, "lon": -107.62851554280712, "alt_km": 778.6986336157397, "timestamp": "2025-12-09T21:34:11.807566+00:00", "meta": {"OBJECT_NAME": "COSMOS 2251 DEB", "OBJECT_ID": "1993-036BQL", "EPOCH": "2025-12-07T12:56:14.167968", "MEAN_MOTION": 14.35480265, "ECCENTRICITY": 0.00206161, "INCLINATION": 74.0254, "RA_OF_ASC_NODE": 275.2818, "ARG_OF_PERICENTER": 39.5807, "MEAN_ANOMALY": 320.6846, "EPHEMERIS_TYPE": 0, "CLASSIFICATION_TYPE": "U", "NORAD_CAT_ID": 37985, "ELEMENT_SET_NO": 999, "REV_AT_EPOCH": 64842, "BSTAR": 0.0001017568, "MEAN_MOTION_DOT": 2.67e-06, "MEAN_MOTION_DDOT": 0}, "tle": {"line1": "1 37985U 93036BQL 25341.53905287  .00000267  00000+0  10176-3 0  9999", "line2": "2 37985  74.0254 275.2818 0020616  39.5807 320.6846 14.35480265648427"}}, "geometry": {"type": "Point", "coordinates": [-107.62851554280712, -48.045559753219365]}}, {"type": "Feature", "properties": {"norad_id": 37988, "name": "COSMOS 2251 DEB", "group": "cosmos-2251-debris", "lat": -29.32772142850811, "lon": 20.2767206589061, "alt_km": 676.714039128864, "timestamp": "2025-12-09T21:34:11.807587+00:00", "meta": {"OBJECT_NAME": "COSMOS 2251 DEB", "OBJECT_ID": "1993-036BQP", "EPOCH": "2025-12-08T13:00:57.140928", "MEAN_MOTION": 14.6880347, "ECCENTRICITY": 0.0063188, "INCLINATION": 74.0631, "RA_OF_ASC_NODE": 32.1342, "ARG_OF_PERICENTER": 70.9756, "MEAN_ANOMALY": 289.8245, "EPHEMERIS_TYPE": 0, "CLASSIFICATION_TYPE": "U", "NORAD_CAT_ID": 37988, "ELEMENT_SET_NO": 999, "REV_AT_EPOCH": 23334, "BSTAR": 0.0011554, "MEAN_MOTION_DOT": 6.927e-05, "MEAN_MOTION_DDOT": 0}, "tle": {"line1": "1 37988U 93036BQP 25342.54232802  .00006927  00000+0  11554-2 0  9999", "line2": "2 37988  74.0631  32.1342 0063188  70.9756 289.8245 14.68803470233347"}}, "geometry": {"type": "Point", "coordinates": [20.2767206589061, -29.32772142850811]}}, {"type": "Feature", "properties": {"norad_id": 37993, "name": "COSMOS 2251 DEB", "group": "cosmos-2251-debris", "lat": -18.387752948014356, "lon": -2.195682559491887, "alt_km": 690.9832881921748, "timestamp": "2025-12-09T21:34:11.807599+00:00", "meta": {"OBJECT_NAME": "COSMOS 2251 DEB", "OBJECT_ID": "1993-036BQU", "EPOCH": "2025-12-09T05:51:24.736320", "MEAN_MOTION": 14.59845478, "ECCENTRICITY": 0.0022054, "INCLINATION": 74.0217, "RA_OF_ASC_NODE": 173.5884, "ARG_OF_PERICENTER": 262.4751, "MEAN_ANOMALY": 97.3909, "EPHEMERIS_TYPE": 0, "CLASSIFICATION_TYPE": "U", "NORAD_CAT_ID": 37993, "ELEMENT_SET_NO": 999, "REV_AT_EPOCH": 65266, "BSTAR": 0.0017274, "MEAN_MOTION_DOT": 8.27e-05, "MEAN_MOTION_DDOT": 0}, "tle": {"line1": "1 37993U 93036BQU 25343.24403630  .00008270  00000+0  17274-2 0  9990", "line2": "2 37993  74.0217 173.5884 0022054 262.4751  97.3909 14.59845478652667"}}, "geometry": {"type": "Point", "coordinates": [-2.195682559491887, -18.387752948014356]}}, {"type": "Feature", "properties": {"norad_id": 37994, "name": "COSMOS 2251 DEB", "group": "cosmos-2251-debris", "lat": 43.6728699376188, "lon": 85.07619146161619, "alt_km": 766.8635289916265, "timestamp": "2025-12-09T21:34:11.807609+00:00", "meta": {"OBJECT_NAME": "COSMOS 2251 DEB", "OBJECT_ID": "1993-036BQV", "EPOCH": "2025-12-09T04:16:21.574272", "MEAN_MOTION": 14.39609674, "ECCENTRICITY": 0.00227751, "INCLINATION": 74.037, "RA_OF_ASC_NODE": 282.2654, "ARG_OF_PERICENTER": 2.3613, "MEAN_ANOMALY": 357.7645, "EPHEMERIS_TYPE": 0, "CLASSIFICATION_TYPE": "U", "NORAD_CAT_ID": 37994, "ELEMENT_SET_NO": 999, "REV_AT_EPOCH": 77013, "BSTAR": 0.00054509171, "MEAN_MOTION_DOT": 1.682e-05, "MEAN_MOTION_DDOT": 0}, "tle": {"line1": "1 37994U 93036BQV 25343.17802748  .00001682  00000+0  54509-3 0  9999", "line2": "2 37994  74.0370 282.2654 0022775   2.3613 357.7645 14.39609674770136"}}, "geometry": {"type": "Point", "coordinates": [85.07619146161619, 43.6728699376188]}}]}